SENTINEL-2A             
1 40697U 15028A   20132.13064483 -.00000021  00000-0  85514-5 0  9991
2 40697  98.5697 206.8955 0001281  87.7406 272.3924 14.30815150255123
AVUM R/B                
1 40698U 15028B   20131.82394508  .00001364  00000-0  62876-4 0  9996
2 40698  98.6395  62.4383 0257228 140.7964 221.2204 14.97698431266641
